{
  "type": "FeatureCollection",
  "features": [
    {
      "type": "Feature",
      "properties": {
        "norad_id": 43823,
        "name": "GEO-KOMPSAT-2A",
        "group": "weather",
        "lat": 0.03140174935497383,
        "lon": 148.4024018482644,
        "alt_km": 35784.949555539,
        "timestamp": "2025-12-18T19:29:52.187247+00:00",
        "meta_object_name": "GEO-KOMPSAT-2A",
        "meta_object_id": "2018-100A",
        "meta_epoch": "2025-12-16T07:07:06.206304",
        "meta_mean_motion": 1.00271835,
        "meta_eccentricity": 4.993e-05,
        "meta_inclination": 0.0508,
        "meta_ra_of_asc_node": 132.3973,
        "meta_arg_of_pericenter": 330.4458,
        "meta_mean_anomaly": 217.3998,
        "meta_ephemeris_type": 0,
        "meta_classification_type": "U",
        "meta_norad_cat_id": 43823,
        "meta_element_set_no": 999,
        "meta_rev_at_epoch": 2579,
        "meta_bstar": 0,
        "meta_mean_motion_dot": -3.2e-06,
        "meta_mean_motion_ddot": 0,
        "tle_line1": "1 43823U 18100A   25350.29659961 -.00000320  00000+0  00000+0 0  9996",
        "tle_line2": "2 43823   0.0508 132.3973 0000499 330.4458 217.3998  1.00271835 25791"
      },
      "geometry": {
        "type": "Point",
        "coordinates": [
          148.4024018482644,
          0.03140174935497383
        ]
      }
    },
    {
      "type": "Feature",
      "properties": {
        "norad_id": 44387,
        "name": "METEOR-M2 2",
        "group": "weather",
        "lat": 4.9861146318565295,
        "lon": 153.39872536248393,
        "alt_km": 812.3052022003412,
        "timestamp": "2025-12-18T19:29:52.187265+00:00",
        "meta_object_name": "METEOR-M2 2",
        "meta_object_id": "2019-038A",
        "meta_epoch": "2025-12-18T06:52:39.781056",
        "meta_mean_motion": 14.24294222,
        "meta_eccentricity": 0.00014593,
        "meta_inclination": 98.8968,
        "meta_ra_of_asc_node": 332.0835,
        "meta_arg_of_pericenter": 136.1632,
        "meta_mean_anomaly": 223.9662,
        "meta_ephemeris_type": 0,
        "meta_classification_type": "U",
        "meta_norad_cat_id": 44387,
        "meta_element_set_no": 999,
        "meta_rev_at_epoch": 33554,
        "meta_bstar": 9.9457918e-05,
        "meta_mean_motion_dot": 1.84e-06,
        "meta_mean_motion_ddot": 0,
        "tle_line1": "1 44387U 19038A   25352.28657154  .00000184  00000+0  99458-4 0  9993",
        "tle_line2": "2 44387  98.8968 332.0835 0001459 136.1632 223.9662 14.24294222335543"
      },
      "geometry": {
        "type": "Point",
        "coordinates": [
          153.39872536248393,
          4.9861146318565295
        ]
      }
    },
    {
      "type": "Feature",
      "properties": {
        "norad_id": 47719,
        "name": "ARKTIKA-M 1",
        "group": "weather",
        "lat": 62.93945659510334,
        "lon": -178.38510076674115,
        "alt_km": 38889.83429131842,
        "timestamp": "2025-12-18T19:29:52.187279+00:00",
        "meta_object_name": "ARKTIKA-M 1",
        "meta_object_id": "2021-016A",
        "meta_epoch": "2025-12-18T01:24:39.137184",
        "meta_mean_motion": 2.00630666,
        "meta_eccentricity": 0.72069203,
        "meta_inclination": 63.1752,
        "meta_ra_of_asc_node": 83.2669,
        "meta_arg_of_pericenter": 269.1449,
        "meta_mean_anomaly": 15.5709,
        "meta_ephemeris_type": 0,
        "meta_classification_type": "U",
        "meta_norad_cat_id": 47719,
        "meta_element_set_no": 999,
        "meta_rev_at_epoch": 3515,
        "meta_bstar": 0,
        "meta_mean_motion_dot": -1.26e-06,
        "meta_mean_motion_ddot": 0,
        "tle_line1": "1 47719U 21016A   25352.05878631 -.00000126  00000+0  00000+0 0  9991",
        "tle_line2": "2 47719  63.1752  83.2669 7206920 269.1449  15.5709  2.00630666 35159"
      },
      "geometry": {
        "type": "Point",
        "coordinates": [
          -178.38510076674115,
          62.93945659510334
        ]
      }
    },
    {
      "type": "Feature",
      "properties": {
        "norad_id": 49008,
        "name": "FENGYUN 3E",
        "group": "weather",
        "lat": 37.09022932790225,
        "lon": -13.42252343703068,
        "alt_km": 823.5074180106267,
        "timestamp": "2025-12-18T19:29:52.187291+00:00",
        "meta_object_name": "FENGYUN 3E",
        "meta_object_id": "2021-062A",
        "meta_epoch": "2025-12-18T07:28:57.533664",
        "meta_mean_motion": 14.19879711,
        "meta_eccentricity": 6.397e-05,
        "meta_inclination": 98.7472,
        "meta_ra_of_asc_node": 352.7672,
        "meta_arg_of_pericenter": 227.7686,
        "meta_mean_anomaly": 132.3436,
        "meta_ephemeris_type": 0,
        "meta_classification_type": "U",
        "meta_norad_cat_id": 49008,
        "meta_element_set_no": 999,
        "meta_rev_at_epoch": 23091,
        "meta_bstar": -0.00012759408,
        "meta_mean_motion_dot": -3.15e-06,
        "meta_mean_motion_ddot": 0,
        "tle_line1": "1 49008U 21062A   25352.31177701 -.00000315  00000+0 -12759-3 0  9993",
        "tle_line2": "2 49008  98.7472 352.7672 0000639 227.7686 132.3436 14.19879711230913"
      },
      "geometry": {
        "type": "Point",
        "coordinates": [
          -13.42252343703068,
          37.09022932790225
        ]
      }
    },
    {
      "type": "Feature",
      "properties": {
        "norad_id": 51850,
        "name": "GOES 18",
        "group": "weather",
        "lat": 0.006296995191445206,
        "lon": -116.87560962998822,
        "alt_km": 35785.8387732024,
        "timestamp": "2025-12-18T19:29:52.187302+00:00",
        "meta_object_name": "GOES 18",
        "meta_object_id": "2022-021A",
        "meta_epoch": "2025-12-18T05:40:18.417792",
        "meta_mean_motion": 1.00272451,
        "meta_eccentricity": 4.74e-05,
        "meta_inclination": 0.0207,
        "meta_ra_of_asc_node": 170.9538,
        "meta_arg_of_pericenter": 162.3851,
        "meta_mean_anomaly": 61.8421,
        "meta_ephemeris_type": 0,
        "meta_classification_type": "U",
        "meta_norad_cat_id": 51850,
        "meta_element_set_no": 999,
        "meta_rev_at_epoch": 477,
        "meta_bstar": 0,
        "meta_mean_motion_dot": 1.22e-06,
        "meta_mean_motion_ddot": 0,
        "tle_line1": "1 51850U 22021A   25352.23632428  .00000122  00000+0  00000+0 0  9996",
        "tle_line2": "2 51850   0.0207 170.9538 0000474 162.3851  61.8421  1.00272451  4776"
      },
      "geometry": {
        "type": "Point",
        "coordinates": [
          -116.87560962998822,
          0.006296995191445206
        ]
      }
    },
    {
      "type": "Feature",
      "properties": {
        "norad_id": 54234,
        "name": "NOAA 21 (JPSS-2)",
        "group": "weather",
        "lat": 35.76967688273536,
        "lon": -77.32291808020398,
        "alt_km": 823.0469330451915,
        "timestamp": "2025-12-18T19:29:52.187314+00:00",
        "meta_object_name": "NOAA 21 (JPSS-2)",
        "meta_object_id": "2022-150A",
        "meta_epoch": "2025-12-18T05:47:39.837984",
        "meta_mean_motion": 14.19525773,
        "meta_eccentricity": 0.00019879,
        "meta_inclination": 98.7468,
        "meta_ra_of_asc_node": 288.4812,
        "meta_arg_of_pericenter": 27.296,
        "meta_mean_anomaly": 332.832,
        "meta_ephemeris_type": 0,
        "meta_classification_type": "U",
        "meta_norad_cat_id": 54234,
        "meta_element_set_no": 999,
        "meta_rev_at_epoch": 16087,
        "meta_bstar": 4.454891e-05,
        "meta_mean_motion_dot": 5e-07,
        "meta_mean_motion_ddot": 0,
        "tle_line1": "1 54234U 22150A   25352.24143331  .00000050  00000+0  44549-4 0  9990",
        "tle_line2": "2 54234  98.7468 288.4812 0001987  27.2960 332.8320 14.19525773160873"
      },
      "geometry": {
        "type": "Point",
        "coordinates": [
          -77.32291808020398,
          35.76967688273536
        ]
      }
    },
    {
      "type": "Feature",
      "properties": {
        "norad_id": 54743,
        "name": "METEOSAT-12 (MTG-I1)",
        "group": "weather",
        "lat": -0.04257227784394269,
        "lon": 19.842157671403182,
        "alt_km": 35789.27555577737,
        "timestamp": "2025-12-18T19:29:52.187326+00:00",
        "meta_object_name": "METEOSAT-12 (MTG-I1)",
        "meta_object_id": "2022-170C",
        "meta_epoch": "2025-12-18T01:18:34.195680",
        "meta_mean_motion": 1.00270248,
        "meta_eccentricity": 0.00014983,
        "meta_inclination": 0.6921,
        "meta_ra_of_asc_node": 24.4989,
        "meta_arg_of_pericenter": 239.2649,
        "meta_mean_anomaly": 202.5057,
        "meta_ephemeris_type": 0,
        "meta_classification_type": "U",
        "meta_norad_cat_id": 54743,
        "meta_element_set_no": 999,
        "meta_rev_at_epoch": 1116,
        "meta_bstar": 0,
        "meta_mean_motion_dot": 1.7e-07,
        "meta_mean_motion_ddot": 0,
        "tle_line1": "1 54743U 22170C   25352.05456245  .00000017  00000+0  00000+0 0  9999",
        "tle_line2": "2 54743   0.6921  24.4989 0001498 239.2649 202.5057  1.00270248 11160"
      },
      "geometry": {
        "type": "Point",
        "coordinates": [
          19.842157671403182,
          -0.04257227784394269
        ]
      }
    }
  ]
}